; Elyton logo contour-parallel pocket from PNG
; Tool-compensated for 1.27 mm diameter needle/end mill
; Relative / delta G-code
; Place tool at TOP-LEFT of desired logo box, at safe lifted position
; Scale: 0.092 mm/px
; Tool diameter: 1.27 mm
; Tool radius used for compensation: 0.635 mm (6.90 px)
; Contour stepover: 0.092 mm (1.00 px)
; Cut feed: F60
; Travel/Z feed: F1600
; Z lift: 2 mm
G21
G91
G1 Z2 F1600
; loop 1 @ offset 0.635 mm
G0 Y0.727 F1600
G1 Z-2 F1600
G1 X-8.3640 Y0.009 F60
G1 X0.1300 Y1.021 F60
G1 X3.1510 Y0.007 F60
G1 X-0.5520 Y0.168 F60
G1 X-0.7050 Y0.368 F60
G1 Y1.932 F60
G1 X-1.2140 Y0.46 F60
G1 X-1.2080 Y0.083 F60
G1 X-4.3100 Y0.009 F60
G1 X-0.8880 Y0.929 F60
G1 X2.5070 F60
G1 X-0.4600 Y0.175 F60
G1 X-0.6990 Y0.46 F60
G1 Y1.932 F60
G1 X-1.0150 Y0.368 F60
G1 X-1.1380 Y0.204 F60
G1 X-1.1730 Y0.063 F60
G1 X-5.1290 F60
G1 X-0.9060 Y1.021 F60
G1 X4.5400 Y0.009 F60
G1 X0.0230 Y-0.894 F60
G1 X-0.5290 Y-0.118 F60
G1 Y-8.206 F60
G1 Z2 F1600
; loop 2 @ offset 0.635 mm
G0 X-10.1800 Y1.849 F1600
G1 Z-2 F1600
G1 X-2.2860 Y-1.395 F60
G1 X-0.9690 Y7.283 F60
G1 X-1.1010 Y0.241 F60
G1 X-1.1730 Y0.111 F60
G1 X-4.9450 Y0.007 F60
G1 Y1.122 F60
G1 X5.0920 Y-0.009 F60
G1 Y-7.36 F60
G1 Z2 F1600
; loop 3 @ offset 0.635 mm
G0 X-5.9660 Y-1.849 F1600
G1 Z-2 F1600
G1 X-2.2920 Y0.009 F60
G1 X-3.0330 Y3.036 F60
G1 X-1.4140 Y0.424 F60
G1 X-1.2650 F60
G1 X-1.2650 Y-0.263 F60
G1 X-1.9090 Y-1.564 F60
G1 X-1.6560 Y0.759 F60
G1 X0.6540 Y2.484 F60
G1 X-0.8610 Y4.333 F60
G1 X0.5840 Y-0.009 F60
G1 X-0.8700 Y-4.232 F60
G1 X2.5630 Y-4.977 F60
G1 Z2 F1600
; loop 4 @ offset 0.635 mm
G0 X-8.7170 F1600
G1 Z-2 F1600
G1 X-7.1680 Y0.009 F60
G1 X0.2220 Y1.113 F60
G1 X0.3910 Y0.027 F60
G1 X-0.6440 Y0.148 F60
G1 X-0.7260 Y0.276 F60
G1 X-0.8610 Y7.645 F60
G1 X0.4920 Y-0.009 F60
G1 X-0.8700 Y-7.636 F60
G1 X-0.5650 Y-0.388 F60
G1 X-0.3300 Y-0.072 F60
G1 X0.1920 Y-1.113 F60
G1 Z2 F1600
; loop 5 @ offset 0.635 mm
G0 X-8.3170 Y2.309 F1600
G1 Z-2 F1600
G1 X-1.3680 Y-0.736 F60
G1 X-1.6540 Y-0.757 F60
G1 X-1.9090 Y-0.604 F60
G1 X-2.2200 Y-0.388 F60
G1 X-1.1380 Y-0.241 F60
G1 X-0.9800 Y-0.311 F60
G1 X-1.7430 F60
G1 X-0.9800 Y0.311 F60
G1 X-1.1380 Y0.241 F60
G1 X-2.5200 Y0.552 F60
G1 X0.0460 Y0.941 F60
G1 X-0.0690 Y-0.281 F60
G1 X0.2990 F60
G1 X-0.0690 Y0.241 F60
G1 X-0.2760 Y0.388 F60
G1 X-0.2650 Y0.644 F60
G1 X-0.3460 Y1.104 F60
G1 X-0.7780 Y0.552 F60
G1 Y1.196 F60
G1 X-1.0520 Y0.736 F60
G1 X0.0950 Y1.035 F60
G1 X-0.4370 Y-1.096 F60
G1 X-0.7040 Y-1.043 F60
G1 X-0.9890 Y-1.104 F60
G1 X-1.3340 Y-1.38 F60
G1 Z2 F1600
; loop 6 @ offset 0.635 mm
G0 X-3.7810 Y5.54 F1600
G1 Z-2 F1600
G1 X-1.6330 Y0.241 F60
G1 X-2.1850 F60
G1 X-1.4490 Y-0.149 F60
G1 X-1.8860 Y-0.572 F60
G1 X-1.5640 Y-0.793 F60
G1 X-1.3210 Y-1.047 F60
G1 X-1.0160 Y-1.104 F60
G1 X-0.7010 Y-1.196 F60
G1 X-1.9300 Y-0.977 F60
G1 X-1.2650 Y0.946 F60
G1 X-1.0900 Y0.859 F60
G1 Y1.012 F60
G1 X-0.5360 Y1.38 F60
G1 X-0.4420 Y0.92 F60
G1 X-0.1400 Y0.849 F60
G1 X-0.0690 Y0.563 F60
G1 X0.2990 Y0.437 F60
G1 X0.2990 Y0.184 F60
G1 X0.2990 Y-0.184 F60
G1 X0.2300 Y-0.469 F60
G1 X-1.8400 Y-0.9 F60
G1 Z2 F1600
; loop 7 @ offset 0.635 mm
G0 X-9.6280 Y0.624 F1600
G1 Z-2 F1600
G1 Y-8.464 F60
G1 X-2.2990 F60
G1 X-5.3350 Y6.072 F60
G1 X-1.4140 Y0.352 F60
G1 X-1.3570 Y-0.111 F60
G1 X-1.1570 Y-0.425 F60
G1 X-0.7200 Y-1.564 F60
G1 Y-4.324 F60
G1 X-1.4580 Y-0.009 F60
G1 X-1.8170 Y0.894 F60
G1 X-1.2650 Y0.118 F60
G1 Y8.206 F60
G1 X1.0350 F60
G1 X-0.8050 Y-0.078 F60
G1 X3.4620 Y-5.911 F60
G1 X-0.4720 Y-0.26 F60
G1 X-0.4370 Y0.111 F60
G1 X-0.6370 Y0.425 F60
G1 X-0.9820 Y5.704 F60
G1 X-0.3360 Y0.009 F60
G1 X-0.2300 Y-0.653 F60
G1 X-0.8190 Y-0.092 F60
G1 Z2 F1600
; loop 8 @ offset 0.727 mm
G0 X-1.0110 F1600
G1 Z-2 F1600
G1 X-0.8750 Y-8.372 F60
G1 X-2.1940 Y0.059 F60
G1 X-5.3020 Y6.013 F60
G1 X-1.4600 Y0.353 F60
G1 X-1.4490 Y-0.158 F60
G1 X-1.1580 Y-0.471 F60
G1 X-0.7190 Y-1.564 F60
G1 Y-4.232 F60
G1 X-1.3660 Y0.013 F60
G1 X-1.7250 Y0.826 F60
G1 X-1.3570 Y0.164 F60
G1 Y8.022 F60
G1 X1.0350 Y-0.022 F60
G1 X3.5080 Y-5.967 F60
G1 X-0.4260 Y-0.261 F60
G1 X-0.3450 Y0.158 F60
G1 X-0.6360 Y0.471 F60
G1 X-0.9830 Y5.612 F60
G1 X-0.4280 Y-0.013 F60
G1 X-0.2660 Y-0.631 F60
G1 Z2 F1600
; loop 9 @ offset 0.727 mm
G0 X2.2290 Y-2.024 F1600
G1 Z-2 F1600
G1 X-0.4840 Y0.828 F60
G1 X-0.1790 Y0.828 F60
G1 X-0.1740 Y0.522 F60
G1 X0.3910 Y0.499 F60
G1 X0.2990 Y0.184 F60
G1 X0.2990 Y-0.184 F60
G1 X0.0960 Y-0.377 F60
G1 X-1.7060 Y-0.798 F60
G1 X-1.6330 Y0.231 F60
G1 X-2.1850 F60
G1 X-1.4490 Y-0.141 F60
G1 X-1.9220 Y-0.58 F60
G1 X-1.6030 Y-0.828 F60
G1 X-1.3420 Y-1.104 F60
G1 X-1.0130 Y-1.104 F60
G1 X-0.7350 Y-1.196 F60
G1 X-1.7120 Y-0.815 F60
G1 X-0.9890 Y0.046 F60
G1 X-1.3660 Y1.597 F60
G1 Y1.012 F60
G1 X-0.5350 Y1.38 F60
G1 Z2 F1600
; loop 10 @ offset 0.727 mm
G0 X1.9700 Y-5.257 F1600
G1 Z-2 F1600
G1 X-0.0690 Y-0.249 F60
G1 X0.2990 F60
G1 X-0.0690 Y0.233 F60
G1 X-0.2400 Y0.396 F60
G1 X-0.2550 Y0.644 F60
G1 X-0.4190 Y0.828 F60
G1 X-0.6580 Y0.92 F60
G1 X-0.9030 Y1.288 F60
G1 X-1.0360 Y0.644 F60
G1 X-0.0070 Y0.901 F60
G1 X-0.5200 Y-0.993 F60
G1 X-0.7130 Y-1.012 F60
G1 X-0.9890 Y-1.104 F60
G1 X-1.3490 Y-1.38 F60
G1 X-1.3740 Y-0.723 F60
G1 X-1.5540 Y-0.657 F60
G1 X-1.9880 Y-0.659 F60
G1 X-2.1850 Y-0.37 F60
G1 X-1.1560 Y-0.259 F60
G1 X-0.9970 Y-0.368 F60
G1 X-1.5590 F60
G1 X-0.9970 Y0.368 F60
G1 X-1.1560 Y0.259 F60
G1 X-2.1850 Y0.37 F60
G1 X-1.1140 Y0.107 F60
G1 X-0.8510 Y0.092 F60
G1 X-0.1740 Y0.723 F60
G1 Z2 F1600
; loop 11 @ offset 0.727 mm
G0 X6.2320 Y-1.091 F1600
G1 Z-2 F1600
G1 X-0.0220 Y0.907 F60
G1 X0.3910 Y0.045 F60
G1 X-0.5290 Y0.231 F60
G1 X-0.7460 Y0.289 F60
G1 X-0.8640 Y7.553 F60
G1 X0.3080 Y-0.009 F60
G1 X-0.8420 Y-7.636 F60
G1 X-0.5600 Y-0.368 F60
G1 X-0.2860 Y-0.105 F60
G1 X-0.0220 Y-0.907 F60
G1 X-6.6960 F60
G1 Z2 F1600
; loop 12 @ offset 0.727 mm
G0 X6.5230 Y2.3 F1600
G1 Z-2 F1600
G1 X-0.8790 Y0.184 F60
G1 X0.6040 Y2.3 F60
G1 X-0.8640 Y4.241 F60
G1 X0.4000 Y-0.009 F60
G1 X-0.8420 Y-4.232 F60
G1 X2.3990 Y-4.784 F60
G1 X-2.0480 Y0.013 F60
G1 X-3.0020 Y3.023 F60
G1 X-1.3680 Y0.396 F60
G1 X-1.2650 Y0.049 F60
G1 X-1.2780 Y-0.169 F60
G1 X-1.9880 Y-1.597 F60
G1 X-1.5280 Y0.585 F60
G1 Z2 F1600
; loop 13 @ offset 0.727 mm
G0 X4.7020 Y5.787 F1600
G1 Z-2 F1600
G1 Y0.938 F60
G1 X4.9080 Y-0.009 F60
G1 Y-7.176 F60
G1 X-2.1020 Y-1.243 F60
G1 X-0.9060 Y6.763 F60
G1 X-0.9970 Y0.368 F60
G1 X-1.1560 Y0.259 F60
G1 X-1.1730 Y0.094 F60
G1 X-4.8530 Y0.006 F60
G1 Z2 F1600
; loop 14 @ offset 0.727 mm
G0 X7.6590 Y0.092 F1600
G1 Z-2 F1600
G1 X-0.9060 Y0.837 F60
G1 X4.3560 Y0.009 F60
G1 X0.0230 Y-0.848 F60
G1 X-0.4370 Y-0.164 F60
G1 Y-8.022 F60
G1 X-8.1200 Y0.009 F60
G1 X-0.0690 Y0.828 F60
G1 X3.1060 Y0.015 F60
G1 X-0.5160 Y0.169 F60
G1 X-0.6480 Y0.46 F60
G1 Y1.932 F60
G1 X-0.9910 Y0.276 F60
G1 X-1.1560 Y0.259 F60
G1 X-1.2650 Y0.1 F60
G1 X-4.2180 Y0.009 F60
G1 X-0.8880 Y0.745 F60
G1 X2.4150 F60
G1 X-0.4240 Y0.175 F60
G1 X-0.6430 Y0.552 F60
G1 Y1.932 F60
G1 X-0.9970 Y0.368 F60
G1 X-1.1560 Y0.259 F60
G1 X-1.1730 Y0.094 F60
G1 X-5.1290 Y0.006 F60
G1 Z2 F1600
; loop 15 @ offset 0.819 mm
G0 X-0.8050 Y0.092 F1600
G1 Z-2 F1600
G1 X-0.9060 Y0.653 F60
G1 X4.2640 Y0.009 F60
G1 X0.0230 Y-0.87 F60
G1 X-0.4370 Y-0.142 F60
G1 Y-7.838 F60
G1 X-7.9060 Y0.009 F60
G1 X-0.2360 Y0.653 F60
G1 X3.1510 Y0.021 F60
G1 X-0.4370 Y0.293 F60
G1 X-0.7220 Y0.505 F60
G1 X-0.9020 Y1.84 F60
G1 X-1.0340 Y0.368 F60
G1 X-1.1140 Y0.217 F60
G1 X-1.3570 Y0.142 F60
G1 X-4.1260 Y0.009 F60
G1 X-0.8880 Y0.561 F60
G1 X2.4150 Y0.005 F60
G1 X-0.4370 Y0.21 F60
G1 X-0.6300 Y0.604 F60
G1 X-0.9020 Y2.024 F60
G1 X-1.0340 Y0.368 F60
G1 X-1.1140 Y0.217 F60
G1 X-1.2650 Y0.137 F60
G1 X-5.0370 Y0.005 F60
G1 Z2 F1600
; loop 16 @ offset 0.819 mm
G0 X-3.8320 Y0.653 F1600
G1 Z-2 F1600
G1 Y-7.084 F60
G1 X-1.9180 Y-1.029 F60
G1 X-0.9060 Y6.549 F60
G1 X-0.9840 Y0.368 F60
G1 X-1.1690 Y0.309 F60
G1 X-1.2650 Y0.137 F60
G1 X-4.7610 Y0.005 F60
G1 Y0.754 F60
G1 X4.7240 Y-0.009 F60
G1 Z2 F1600
; loop 17 @ offset 0.819 mm
G0 X-9.4530 F1600
G1 Z-2 F1600
G1 X-0.8490 Y-4.14 F60
G1 X2.3580 Y-4.696 F60
G1 X-1.8340 Y0.004 F60
G1 X-2.9960 Y2.989 F60
G1 X-1.4490 Y0.45 F60
G1 X-1.3570 Y0.027 F60
G1 X-1.2650 Y-0.194 F60
G1 X-1.9090 Y-1.48 F60
G1 X-1.4530 Y0.507 F60
G1 X0.6410 Y2.392 F60
G1 X-0.8670 Y4.149 F60
G1 X0.2160 Y-0.009 F60
G1 Z2 F1600
; loop 18 @ offset 0.819 mm
G0 X-7.2450 F1600
G1 Z-2 F1600
G1 X-0.8490 Y-7.544 F60
G1 X-0.4940 Y-0.456 F60
G1 X-0.2530 Y-0.149 F60
G1 X-0.2530 Y-0.693 F60
G1 X-6.2500 Y0.009 F60
G1 X-0.1610 Y0.736 F60
G1 X0.4080 Y0.057 F60
G1 X-0.5690 Y0.219 F60
G1 X-0.7030 Y0.368 F60
G1 X-0.8670 Y7.461 F60
G1 X0.1240 Y-0.009 F60
G1 Z2 F1600
; loop 19 @ offset 0.819 mm
G0 X-6.2420 Y-2.474 F1600
G1 Z-2 F1600
G1 X-0.5250 Y-1.114 F60
G1 X-0.8000 Y-1.012 F60
G1 X-1.0860 Y-1.104 F60
G1 X-1.2140 Y-0.92 F60
G1 X-1.3720 Y-0.736 F60
G1 X-1.5810 Y-0.684 F60
G1 X-1.9090 Y-0.609 F60
G1 X-2.2770 Y-0.422 F60
G1 X-1.1690 Y-0.309 F60
G1 X-0.9840 Y-0.368 F60
G1 X-1.3750 F60
G1 X-0.9840 Y0.368 F60
G1 X-1.1690 Y0.309 F60
G1 X-2.2770 Y0.422 F60
G1 X-0.9370 Y0.096 F60
G1 X-0.3050 Y0.592 F60
G1 X-0.0690 Y-0.21 F60
G1 X0.2990 F60
G1 X0.0130 Y0.262 F60
G1 X-0.2430 Y0.408 F60
G1 X-0.2530 Y0.652 F60
G1 X-0.4020 Y0.873 F60
G1 X-0.6650 Y0.92 F60
G1 X-0.9020 Y1.288 F60
G1 X-1.0150 Y0.644 F60
G1 X-0.2130 Y0.684 F60
G1 X-0.8050 Y-0.03 F60
G1 Z2 F1600
; loop 20 @ offset 0.819 mm
G0 X-3.0650 Y2.106 F1600
G1 Z-2 F1600
G1 X-1.4890 Y-0.592 F60
G1 X-1.6330 Y0.21 F60
G1 X-2.1850 F60
G1 X-1.5410 Y-0.174 F60
G1 X-1.9090 Y-0.587 F60
G1 X-1.6290 Y-0.88 F60
G1 X-1.3310 Y-1.104 F60
G1 X-1.0100 Y-1.104 F60
G1 X-0.7080 Y-1.104 F60
G1 X-1.6470 Y-0.776 F60
G1 X-1.3610 Y1.512 F60
G1 Y1.012 F60
G1 X-0.5290 Y1.38 F60
G1 X-0.5250 Y0.744 F60
G1 X-0.1610 Y0.859 F60
G1 X-0.0690 Y0.567 F60
G1 X0.2070 Y0.409 F60
G1 X0.2990 Y0.184 F60
G1 X0.2990 Y-0.184 F60
G1 X-0.2530 Y-0.225 F60
G1 X-0.7650 Y-0.147 F60
G1 Z2 F1600
; loop 21 @ offset 0.819 mm
G0 X-10.4650 Y-0.184 F1600
G1 Z-2 F1600
G1 X-0.8360 Y-8.28 F60
G1 X-2.0140 F60
G1 X-5.3090 Y6.025 F60
G1 X-1.1730 Y0.264 F60
G1 X-1.2650 Y0.137 F60
G1 X-1.4940 Y-0.17 F60
G1 X-1.2060 Y-0.552 F60
G1 X-0.7180 Y-1.656 F60
G1 Y-4.048 F60
G1 X-1.1990 F60
G1 X-1.8000 Y0.861 F60
G1 X-1.3570 Y0.142 F60
G1 Y7.838 F60
G1 X0.9600 Y-0.009 F60
G1 X3.5020 Y-5.933 F60
G1 X-0.3450 Y-0.309 F60
G1 X-0.3000 Y0.17 F60
G1 X-0.5880 Y0.552 F60
G1 X-0.9840 Y5.52 F60
G1 X-0.5950 F60
G1 X-0.3230 Y-0.552 F60
G1 Z2 F1600
; loop 22 @ offset 0.911 mm
G0 X-0.9370 Y-0.092 F1600
G1 Z-2 F1600
G1 X-0.8880 Y-8.096 F60
G1 X-1.8260 Y-0.009 F60
G1 X-0.9890 Y0.085 F60
G1 X-5.2330 Y5.904 F60
G1 X-1.2530 Y0.326 F60
G1 X-1.2650 Y0.12 F60
G1 X-1.5410 Y-0.182 F60
G1 X-1.1310 Y-0.264 F60
G1 X-1.0170 Y-0.368 F60
G1 X-0.7180 Y-1.656 F60
G1 Y-3.956 F60
G1 X-1.0900 Y0 F60
G1 X-1.8170 Y0.878 F60
G1 X-1.3570 Y0.125 F60
G1 Y7.654 F60
G1 X0.9430 Y-0.02 F60
G1 X3.4390 Y-5.877 F60
G1 X-0.6330 Y-0.234 F60
G1 X-0.5290 Y-0.12 F60
G1 X-0.2530 Y0.182 F60
G1 X-0.6630 Y0.264 F60
G1 X-0.7770 Y0.368 F60
G1 X-0.9840 Y5.428 F60
G1 X-0.7040 Y0 F60
G1 X-0.3450 Y-0.552 F60
G1 Z2 F1600
; loop 23 @ offset 0.911 mm
G0 X2.5720 Y-2.024 F1600
G1 Z-2 F1600
G1 X-0.5010 Y0.817 F60
G1 X-0.2530 Y0.747 F60
G1 X-0.1610 Y0.546 F60
G1 X0.7590 Y0.567 F60
G1 X-0.1610 Y0.078 F60
G1 X-0.2530 Y-0.078 F60
G1 X0.2990 Y-0.377 F60
G1 X-1.4490 Y-0.488 F60
G1 X-1.6330 Y0.203 F60
G1 X-2.0930 Y-0.005 F60
G1 X-1.3570 Y-0.106 F60
G1 X-2.1850 Y-0.708 F60
G1 X-1.5410 Y-0.752 F60
G1 X-1.2130 Y-0.628 F60
G1 X-1.2160 Y-1.472 F60
G1 X-0.7220 Y-1.38 F60
G1 X-1.5410 Y-0.63 F60
G1 X-1.2600 Y1.366 F60
G1 X-0.9110 Y0.92 F60
G1 X-0.5480 Y1.38 F60
G1 Z2 F1600
; loop 24 @ offset 0.911 mm
G0 X1.8910 Y-5.376 F1600
G1 Z-2 F1600
G1 X-0.0690 Y-0.227 F60
G1 X0.2070 Y0.005 F60
G1 X-0.0690 Y0.222 F60
G1 X-0.1610 Y0.42 F60
G1 X-0.2530 Y0.632 F60
G1 X-0.3400 Y0.92 F60
G1 X-0.6540 Y0.828 F60
G1 X-0.8780 Y1.38 F60
G1 X-1.0080 Y0.644 F60
G1 X-0.3170 Y0.644 F60
G1 X-0.5340 Y-1.012 F60
G1 X-0.7910 Y-1.012 F60
G1 X-1.0950 Y-1.104 F60
G1 X-1.2600 Y-1.001 F60
G1 X-1.6330 Y-0.947 F60
G1 X-1.8170 Y-0.714 F60
G1 X-2.7370 Y-0.662 F60
G1 X-1.1730 Y-0.345 F60
G1 X-0.9800 Y-0.379 F60
G1 X-1.1910 F60
G1 X-0.9800 Y0.379 F60
G1 X-1.1890 Y0.357 F60
G1 X-2.2610 Y0.46 F60
G1 X-0.3450 Y0.512 F60
G1 Z2 F1600
; loop 25 @ offset 0.911 mm
G0 X6.5570 Y-0.696 F1600
G1 Z-2 F1600
G1 X-0.3470 Y0.552 F60
G1 X0.4940 Y0.092 F60
G1 X-0.6320 Y0.184 F60
G1 X-0.6730 Y0.368 F60
G1 X-0.8450 Y7.461 F60
G1 X-0.0600 Y-0.009 F60
G1 X-0.8540 Y-7.452 F60
G1 X-0.5810 Y-0.448 F60
G1 X-0.1610 Y-0.196 F60
G1 X-0.3470 Y-0.552 F60
G1 X-5.8600 F60
G1 Z2 F1600
; loop 26 @ offset 0.911 mm
G0 X6.2830 Y2.208 F1600
G1 Z-2 F1600
G1 X0.6330 Y2.392 F60
G1 X-0.8690 Y4.057 F60
G1 X0.0320 Y-0.009 F60
G1 Y-3.772 F60
G1 X-0.8190 Y-0.368 F60
G1 X2.2360 Y-4.517 F60
G1 X-1.6330 Y0.02 F60
G1 X-2.9330 Y2.933 F60
G1 X-1.4370 Y0.465 F60
G1 X-1.3570 Y0.073 F60
G1 X-1.3570 Y-0.182 F60
G1 X-1.9090 Y-1.449 F60
G1 X-1.3510 Y0.357 F60
G1 Z2 F1600
; loop 27 @ offset 0.911 mm
G0 X4.7090 Y5.879 F1600
G1 Z-2 F1600
G1 Y0.57 F60
G1 X4.5400 Y-0.009 F60
G1 X-0.9060 Y-6.99 F60
G1 X-1.7250 Y-0.828 F60
G1 X-0.9060 Y6.346 F60
G1 X-1.0220 Y0.46 F60
G1 X-1.2230 Y0.326 F60
G1 X-1.2650 Y0.12 F60
G1 X-4.6690 Y0.005 F60
G1 Z2 F1600
; loop 28 @ offset 0.911 mm
G0 X7.6590 Y0.092 F1600
G1 Z-2 F1600
G1 X-0.9060 Y0.469 F60
G1 X4.1720 Y0 F60
G1 X-0.0690 Y-0.816 F60
G1 X-0.3450 Y-0.187 F60
G1 Y-7.654 F60
G1 X-7.7030 Y0.009 F60
G1 X-0.4370 Y0.46 F60
G1 X3.2410 Y0.052 F60
G1 X-0.4490 Y0.316 F60
G1 X-0.7100 Y0.552 F60
G1 X-0.9020 Y1.84 F60
G1 X-1.0170 Y0.368 F60
G1 X-1.1470 Y0.276 F60
G1 X-1.4330 Y0.175 F60
G1 X-4.0340 Y0.009 F60
G1 X-0.8880 Y0.377 F60
G1 X2.3230 Y0.005 F60
G1 X-0.3450 Y0.262 F60
G1 X-0.7080 Y0.276 F60
G1 X-0.8190 Y0.368 F60
G1 X-0.9020 Y2.024 F60
G1 X-1.0670 Y0.444 F60
G1 X-1.1730 Y0.25 F60
G1 X-1.2650 Y0.12 F60
G1 X-4.9450 Y0.005 F60
G1 Z2 F1600
; loop 29 @ offset 1.003 mm
G0 X-0.8050 Y0.092 F1600
G1 Z-2 F1600
G1 X-0.9060 Y0.285 F60
G1 X3.9880 Y0.009 F60
G1 X0.0230 Y-0.846 F60
G1 X-0.3450 Y-0.166 F60
G1 Y-7.47 F60
G1 X-7.4530 Y0.009 F60
G1 X-0.5970 Y0.285 F60
G1 X3.1510 Y0.039 F60
G1 X-0.3450 Y0.399 F60
G1 X-0.7220 Y0.565 F60
G1 X-0.9140 Y1.932 F60
G1 X-1.0460 Y0.368 F60
G1 X-1.1820 Y0.285 F60
G1 X-1.3570 Y0.161 F60
G1 X-4.0340 Y0.013 F60
G1 X-0.8880 Y0.193 F60
G1 X2.2310 Y0.004 F60
G1 X-0.3080 Y0.263 F60
G1 X-0.5790 Y0.644 F60
G1 Y2.116 F60
G1 X-1.0580 Y0.46 F60
G1 X-1.1820 Y0.285 F60
G1 X-1.2650 Y0.149 F60
G1 X-4.9450 Y0.017 F60
G1 Z2 F1600
; loop 30 @ offset 1.003 mm
G0 X-4.2000 Y0.285 F1600
G1 Z-2 F1600
G1 Y-6.808 F60
G1 X-1.5500 Y-0.668 F60
G1 X-0.9060 Y6.096 F60
G1 X-1.0630 Y0.552 F60
G1 X-1.1820 Y0.285 F60
G1 X-1.3570 Y0.161 F60
G1 X-4.5770 Y0.004 F60
G1 Y0.386 F60
G1 X4.3560 Y-0.009 F60
G1 Z2 F1600
; loop 31 @ offset 1.003 mm
G0 X-9.4530 F1600
G1 Z-2 F1600
G1 Y-3.68 F60
G1 X-0.8140 Y-0.398 F60
G1 X2.1390 Y-4.395 F60
G1 X-1.3700 Y0.009 F60
G1 X-2.9680 Y2.944 F60
G1 X-1.4810 Y0.473 F60
G1 X-1.3570 Y0.066 F60
G1 X-1.2650 Y-0.108 F60
G1 X-1.2970 Y-0.339 F60
G1 X-1.6230 Y-1.104 F60
G1 X-0.9670 Y-0.055 F60
G1 X-1.1360 Y0.239 F60
G1 X0.5830 Y2.3 F60
G1 X-0.8490 Y4.057 F60
G1 X-0.1520 Y-0.009 F60
G1 Z2 F1600
; loop 32 @ offset 1.003 mm
G0 X-7.2450 F1600
G1 Z-2 F1600
G1 X-0.8580 Y-7.36 F60
G1 X-0.5770 Y-0.492 F60
G1 X-0.0690 Y-0.28 F60
G1 X-0.5970 Y-0.331 F60
G1 X-5.3370 Y-0.009 F60
G1 X-0.5290 Y0.386 F60
G1 X0.1150 Y0.004 F60
G1 X-0.5290 Y0.108 F60
G1 X-0.5890 Y0.247 F60
G1 X-0.7010 Y0.368 F60
G1 X-0.8490 Y7.369 F60
G1 X-0.2440 Y-0.009 F60
G1 Z2 F1600
; loop 33 @ offset 1.003 mm
G0 X-6.1500 Y-2.529 F1600
G1 Z-2 F1600
G1 X-0.6120 Y-0.967 F60
G1 X-0.8050 Y-0.92 F60
G1 X-1.0770 Y-1.012 F60
G1 X-1.2490 Y-1.012 F60
G1 X-1.3310 Y-0.644 F60
G1 X-1.5500 Y-0.644 F60
G1 X-1.8010 Y-0.552 F60
G1 X-2.4310 Y-0.52 F60
G1 X-1.1440 Y-0.308 F60
G1 X-1.0090 Y-0.46 F60
G1 X-1.0070 F60
G1 X-1.0090 Y0.46 F60
G1 X-1.1440 Y0.308 F60
G1 X-2.0930 Y0.402 F60
G1 X-0.9520 Y0.118 F60
G1 X-0.5660 Y0.319 F60
G1 X-0.1610 Y-0.214 F60
G1 X0.3910 Y0.013 F60
G1 X-0.0390 Y0.25 F60
G1 X-0.1540 Y0.46 F60
G1 X-0.1980 Y0.723 F60
G1 X-0.4240 Y0.841 F60
G1 X-0.6470 Y0.92 F60
G1 Y1.38 F60
G1 X-1.0020 Y0.552 F60
G1 X-0.4110 Y0.507 F60
G1 Z2 F1600
; loop 34 @ offset 1.003 mm
G0 X-3.2420 Y2.345 F1600
G1 Z-2 F1600
G1 X-1.3120 Y-0.394 F60
G1 X-1.6330 Y0.201 F60
G1 X-2.0930 Y-0.004 F60
G1 X-1.4490 Y-0.127 F60
G1 X-1.7250 Y-0.403 F60
G1 X-1.6330 Y-0.617 F60
G1 X-1.3280 Y-0.589 F60
G1 X-1.3380 Y-1.104 F60
G1 X-1.0280 Y-1.196 F60
G1 X-0.7350 Y-1.012 F60
G1 X-1.3440 Y-0.515 F60
G1 X-1.0150 Y0.147 F60
G1 X-1.1560 Y1.104 F60
G1 Y0.828 F60
G1 X-0.5460 Y1.38 F60
G1 X-0.5320 Y0.736 F60
G1 X-0.2240 Y0.791 F60
G1 X-0.2080 Y0.497 F60
G1 X0.7140 Y0.561 F60
G1 X-0.1610 Y0.07 F60
G1 X-0.2530 Y-0.07 F60
G1 X0.1620 Y-0.285 F60
G1 Z2 F1600
; loop 35 @ offset 1.003 mm
G0 X-10.3640 Y-0.276 F1600
G1 Z-2 F1600
G1 X-0.8510 Y-8.004 F60
G1 X-1.7340 Y0.013 F60
G1 X-5.2810 Y5.967 F60
G1 X-1.2970 Y0.339 F60
G1 X-1.2650 Y0.108 F60
G1 X-1.5540 Y-0.171 F60
G1 X-1.1690 Y-0.276 F60
G1 X-1.0460 Y-0.368 F60
G1 X-0.7300 Y-1.748 F60
G1 Y-3.864 F60
G1 X-1.8260 Y0.837 F60
G1 X-1.4490 Y0.166 F60
G1 Y7.47 F60
G1 X0.8640 Y-0.009 F60
G1 X3.4740 Y-5.888 F60
G1 X-0.5890 Y-0.247 F60
G1 X-0.5290 Y-0.108 F60
G1 X-0.2530 Y0.161 F60
G1 X-0.4850 Y0.561 F60
G1 X-0.9500 Y5.52 F60
G1 X-0.3730 Y-0.46 F60
G1 Z2 F1600
; loop 36 @ offset 1.095 mm
G0 X-0.9430 Y-0.092 F1600
G1 Z-2 F1600
G1 Y-7.82 F60
G1 X-1.5500 Y-0.009 F60
G1 X-1.0810 Y0.175 F60
G1 X-5.1290 Y5.794 F60
G1 X-1.2650 Y0.322 F60
G1 X-1.3570 Y0.146 F60
G1 X-1.6330 Y-0.206 F60
G1 X-1.1980 Y-0.333 F60
G1 X-1.0310 Y-0.368 F60
G1 X-0.7290 Y-1.748 F60
G1 Y-3.68 F60
G1 X-1.6930 Y0.736 F60
G1 X-1.4900 Y0.175 F60
G1 Y7.286 F60
G1 X0.8510 Y-0.05 F60
G1 X3.4270 Y-5.827 F60
G1 X-0.5290 Y-0.278 F60
G1 X-0.4370 Y-0.101 F60
G1 X-0.1810 Y0.267 F60
G1 X-0.5340 Y0.644 F60
G1 X-0.9640 Y5.257 F60
G1 X-0.7870 Y-0.105 F60
G1 X-0.6300 Y-0.276 F60
G1 Z2 F1600
; loop 37 @ offset 1.095 mm
G0 X2.9400 Y-1.932 F1600
G1 Z-2 F1600
G1 X-0.5250 Y0.736 F60
G1 X-0.2560 Y0.736 F60
G1 X-0.2350 Y0.475 F60
G1 X0.6670 Y0.546 F60
G1 X0.4830 F60
G1 X-0.1610 Y-0.175 F60
G1 X-0.7870 Y-0.11 F60
G1 X-1.0990 Y-0.199 F60
G1 X-1.5410 Y0.186 F60
G1 X-2.3690 Y-0.032 F60
G1 X-2.0930 Y-0.482 F60
G1 X-1.5410 Y-0.503 F60
G1 X-1.4740 Y-0.718 F60
G1 X-1.3790 Y-1.196 F60
G1 X-1.0240 Y-1.196 F60
G1 X-0.7410 Y-1.012 F60
G1 X-1.2460 Y-0.386 F60
G1 X-1.1820 Y1.122 F60
G1 Y0.828 F60
G1 X-0.5380 Y1.38 F60
G1 Z2 F1600
; loop 38 @ offset 1.095 mm
G0 X1.6970 Y-5.594 F1600
G1 Z-2 F1600
G1 X-0.0690 Y-0.193 F60
G1 X0.2070 Y0.004 F60
G1 X-0.2530 Y0.152 F60
G1 X0.1150 Y0.514 F60
G1 X-0.1790 Y0.701 F60
G1 X-0.3460 Y0.92 F60
G1 X-0.6470 Y0.828 F60
G1 X-0.8620 Y1.472 F60
G1 X-0.9950 Y0.644 F60
G1 X-0.6060 Y0.294 F60
G1 X-0.7000 Y-0.386 F60
G1 X-0.7170 Y-1.012 F60
G1 X-0.9890 Y-0.92 F60
G1 X-1.2990 Y-1.288 F60
G1 X-1.6650 Y-1.012 F60
G1 X-2.0880 Y-0.828 F60
G1 X-2.3170 Y-0.435 F60
G1 X-1.3570 Y-0.529 F60
G1 X-1.4490 Y0.529 F60
G1 X-1.9090 Y0.322 F60
G1 X-0.7130 Y0.222 F60
G1 Z2 F1600
; loop 39 @ offset 1.095 mm
G0 X7.0150 Y-0.303 F1600
G1 Z-2 F1600
G1 X-0.7130 Y0.202 F60
G1 X0.1150 Y0.004 F60
G1 X-0.5290 Y0.098 F60
G1 X-0.5290 Y0.278 F60
G1 X-0.6650 Y0.44 F60
G1 X-0.8530 Y7.277 F60
G1 X-0.4280 Y-0.009 F60
G1 X-0.8620 Y-7.268 F60
G1 X-0.4810 Y-0.609 F60
G1 X-0.1610 Y-0.21 F60
G1 X-0.7000 Y-0.193 F60
G1 X-4.9580 Y-0.009 F60
G1 Z2 F1600
; loop 40 @ offset 1.095 mm
G0 X6.0770 Y2.033 F1600
G1 Z-2 F1600
G1 X0.5480 Y2.3 F60
G1 X-0.8530 Y3.965 F60
G1 X-0.3360 Y-0.009 F60
G1 Y-3.588 F60
G1 X-0.7960 Y-0.46 F60
G1 X2.0290 Y-4.241 F60
G1 X-1.1730 Y0.05 F60
G1 X-2.8640 Y2.811 F60
G1 X-1.5980 Y0.571 F60
G1 X-1.3570 Y0.06 F60
G1 X-1.3980 Y-0.171 F60
G1 X-1.2820 Y-0.368 F60
G1 X-1.5760 Y-1.03 F60
G1 X-1.0070 Y0.11 F60
G1 Z2 F1600
; loop 41 @ offset 1.095 mm
G0 X4.6410 Y6.063 F1600
G1 Z-2 F1600
G1 Y0.202 F60
G1 X4.1720 Y-0.009 F60
G1 Y-6.716 F60
G1 X-1.3660 Y-0.473 F60
G1 X-0.9060 Y5.901 F60
G1 X-1.0720 Y0.593 F60
G1 X-1.2240 Y0.327 F60
G1 X-1.3060 Y0.159 F60
G1 X-4.5770 Y0.016 F60
G1 Z2 F1600
; loop 42 @ offset 1.095 mm
G0 X7.6500 Y0.193 F1600
G1 Z-2 F1600
G1 X3.8960 Y0.009 F60
G1 X-0.0690 Y-0.802 F60
G1 X-0.2530 Y-0.21 F60
G1 Y-7.286 F60
G1 X-7.2580 Y0.009 F60
G1 X-0.7920 Y0.101 F60
G1 X3.1510 Y0.035 F60
G1 X-0.2880 Y0.416 F60
G1 X-0.6870 Y0.644 F60
G1 X-0.9130 Y1.932 F60
G1 X-1.0310 Y0.368 F60
G1 X-1.1980 Y0.333 F60
G1 X-1.4490 Y0.206 F60
G1 X-3.9420 Y0.013 F60
G1 X2.1480 Y0.013 F60
G1 X-0.2530 Y0.281 F60
G1 X-0.6390 Y0.35 F60
G1 X-0.7990 Y0.368 F60
G1 Y2.116 F60
G1 X-1.1030 Y0.552 F60
G1 X-1.2300 Y0.301 F60
G1 X-1.3570 Y0.146 F60
G1 X-4.7610 Y0.004 F60
G1 X-0.9060 Y0.101 F60
G1 Z2 F1600
; loop 43 @ offset 1.187 mm
G0 X-4.4670 Y-0.092 F1600
G1 Z-2 F1600
G1 Y-6.532 F60
G1 X-1.0900 Y-0.254 F60
G1 X-0.9890 Y-0.055 F60
G1 X-0.9100 Y5.737 F60
G1 X-1.0830 Y0.552 F60
G1 X-1.5260 Y0.526 F60
G1 X-4.6690 Y0.035 F60
G1 X3.9880 Y-0.009 F60
G1 Z2 F1600
; loop 44 @ offset 1.187 mm
G0 X6.8880 F1600
G1 Z-2 F1600
G1 X-0.3190 Y-0.022 F60
G1 X-0.0690 Y-0.791 F60
G1 X-0.2530 Y-0.19 F60
G1 Y-7.102 F60
G1 X-2.9470 Y0.009 F60
G1 X-0.4000 Y0.368 F60
G1 X-0.6550 Y0.552 F60
G1 X-0.9150 Y2.208 F60
G1 X-1.1310 Y0.474 F60
G1 X-1.3830 Y0.354 F60
G1 X-0.5030 Y0.254 F60
G1 X-0.6740 Y0.298 F60
G1 X-0.7610 Y0.92 F60
G1 X-0.9300 Y1.84 F60
G1 X-1.1310 Y0.474 F60
G1 X-1.3830 Y0.354 F60
G1 Z2 F1600
; loop 45 @ offset 1.187 mm
G0 X-17.2380 F1600
G1 Z-2 F1600
G1 X-0.8930 Y-3.588 F60
G1 X-0.6720 Y-0.644 F60
G1 X-0.5010 Y-0.552 F60
G1 X-0.9780 Y-0.081 F60
G1 X-1.5410 Y0.252 F60
G1 X-1.7400 Y-0.171 F60
G1 X-0.3530 Y1.012 F60
G1 X-0.8740 Y3.781 F60
G1 X-0.5200 Y-0.009 F60
G1 Z2 F1600
; loop 46 @ offset 1.187 mm
G0 X-7.2450 F1600
G1 Z-2 F1600
G1 X-0.8830 Y-7.084 F60
G1 X-0.7360 Y-0.435 F60
G1 X-0.6350 Y-0.301 F60
G1 X-0.5150 Y-0.25 F60
G1 X-0.4960 Y-0.026 F60
G1 X-4.4260 Y-0.009 F60
G1 X0.2990 Y0.035 F60
G1 X-0.3450 Y0.421 F60
G1 X-0.6630 Y0.474 F60
G1 X-0.8550 Y7.185 F60
G1 X-0.6120 Y-0.009 F60
G1 Z2 F1600
; loop 47 @ offset 1.187 mm
G0 X-6.0580 Y-2.694 F1600
G1 Z-2 F1600
G1 X-0.6120 Y-1.262 F60
G1 X-0.9890 Y-0.92 F60
G1 X-1.2640 Y-1.196 F60
G1 X-1.6540 Y-1.012 F60
G1 X-1.8060 Y-0.697 F60
G1 X-1.6330 Y-0.324 F60
G1 X-1.6330 Y-0.128 F60
G1 X-1.5410 Y-0.531 F60
G1 X-1.6330 Y0.531 F60
G1 X-1.5670 Y0.138 F60
G1 X-0.7790 Y0.102 F60
G1 X-0.2530 Y-0.181 F60
G1 X0.2070 Y-0.004 F60
G1 X-0.1610 Y0.141 F60
G1 X0.1150 Y0.509 F60
G1 X-0.1390 Y0.721 F60
G1 X-0.2850 Y1.012 F60
G1 X-0.6530 Y0.828 F60
G1 X-0.8640 Y1.472 F60
G1 X-0.9930 Y0.552 F60
G1 X-0.7000 Y0.25 F60
G1 Z2 F1600
; loop 48 @ offset 1.187 mm
G0 X-3.4990 Y2.602 F1600
G1 Z-2 F1600
G1 X-1.0550 Y-0.068 F60
G1 X-1.5410 Y0.151 F60
G1 X-2.3690 Y-0.049 F60
G1 X-2.0010 Y-0.455 F60
G1 X-1.4490 Y-0.385 F60
G1 X-1.6330 Y-0.875 F60
G1 X-1.3810 Y-1.171 F60
G1 X-1.0480 Y-1.012 F60
G1 X-0.7510 Y-1.288 F60
G1 X-1.0520 Y-0.162 F60
G1 X-0.9890 Y0.044 F60
G1 X-1.0900 Y0.854 F60
G1 Y0.828 F60
G1 X-0.5620 Y1.288 F60
G1 X-0.5410 Y0.736 F60
G1 X-0.2680 Y0.736 F60
G1 X-0.1840 Y0.513 F60
G1 X0.5750 Y0.508 F60
G1 X0.4830 F60
G1 X-0.1870 Y-0.193 F60
G1 Z2 F1600
; loop 49 @ offset 1.187 mm
G0 X-10.1540 Y-0.368 F1600
G1 Z-2 F1600
G1 Y-7.636 F60
G1 X-1.3660 Y-0.009 F60
G1 X-1.0810 Y0.124 F60
G1 X-2.2920 Y1.909 F60
G1 X-0.2380 Y-0.171 F60
G1 X-0.4370 Y0.055 F60
G1 X-0.4370 Y0.278 F60
G1 X-0.5970 Y0.482 F60
G1 X-0.9210 Y5.185 F60
G1 X-0.7040 Y-0.217 F60
G1 Z2 F1600
; loop 50 @ offset 1.187 mm
G0 X-6.0960 Y-1.38 F1600
G1 Z-2 F1600
G1 X-1.5030 Y0.171 F60
G1 X-1.3570 Y-0.055 F60
G1 X-1.3570 Y-0.278 F60
G1 X-1.1970 Y-0.482 F60
G1 X-0.9520 Y-0.552 F60
G1 X-0.7170 Y-1.38 F60
G1 X-0.9060 Y-3.437 F60
G1 X-1.5660 Y0.585 F60
G1 X-1.5160 Y0.175 F60
G1 Y7.102 F60
G1 X0.7590 F60
G1 X0.4450 Y-1.849 F60
G1 Z2 F1600
; loop 51 @ offset 1.279 mm
G0 X-1.1890 Y0.276 F1600
G1 Z-2 F1600
G1 X-1.4870 Y-0.022 F60
G1 X-1.3590 Y-0.162 F60
G1 X-1.2970 Y-0.368 F60
G1 X-1.1000 Y-0.46 F60
G1 X-0.7430 Y-1.932 F60
G1 Y-3.128 F60
G1 X-1.5500 Y0.51 F60
G1 X-1.4490 Y0.125 F60
G1 Y6.918 F60
G1 X0.6900 Y-0.009 F60
G1 X0.2220 Y-1.472 F60
G1 Z2 F1600
; loop 52 @ offset 1.279 mm
G0 X2.8710 Y-4.784 F1600
G1 Z-2 F1600
G1 X0.0810 Y0.134 F60
G1 X-0.5290 Y0.266 F60
G1 X-0.6210 Y0.435 F60
G1 X-0.8880 Y-2.491 F60
G1 X-1.2740 Y-0.009 F60
G1 X-2.1510 Y1.665 F60
G1 Z2 F1600
; loop 53 @ offset 1.279 mm
G0 X4.7730 Y1.072 F1600
G1 Z-2 F1600
G1 X-1.0840 Y0.768 F60
G1 X-0.9030 Y0.736 F60
G1 X-0.5200 Y1.47 F60
G1 X-1.1610 Y-1.562 F60
G1 X-0.8170 Y-1.412 F60
G1 Z2 F1600
; loop 54 @ offset 1.279 mm
G0 X2.6070 Y-3.004 F1600
G1 Z-2 F1600
G1 X-0.8130 Y0.009 F60
G1 X-0.1690 Y-0.009 F60
G1 X-1.3490 Y-0.323 F60
G1 X-1.2570 Y0.323 F60
G1 Z2 F1600
; loop 55 @ offset 1.279 mm
G0 X3.1450 Y2.3 F1600
G1 Z-2 F1600
G1 X-0.5430 Y1.196 F60
G1 X-0.9770 Y1.861 F60
G1 X-0.8050 Y-0.014 F60
G1 X-0.8020 Y-0.375 F60
G1 X-0.7990 Y-0.828 F60
G1 X-0.9950 Y-0.736 F60
G1 X-1.2680 Y-1.194 F60
G1 X-0.9870 Y0.09 F60
G1 Z2 F1600
; loop 56 @ offset 1.279 mm
G0 X3.8010 Y-2.024 F1600
G1 Z-2 F1600
G1 X-0.4450 Y0.458 F60
G1 X-0.7250 Y0.554 F60
G1 X-0.8850 Y6.909 F60
G1 X-0.7960 Y-0.009 F60
G1 X-0.8940 Y-6.9 F60
G1 X-0.7260 Y-0.552 F60
G1 X-0.4440 Y-0.46 F60
G1 X-0.9810 Y-0.009 F60
G1 X-2.1770 Y0.009 F60
G1 Z2 F1600
; loop 57 @ offset 1.279 mm
G0 X5.6280 Y3.496 F1600
G1 Z-2 F1600
G1 X-0.6250 Y0.46 F60
G1 X-0.8150 Y0.368 F60
G1 X-0.8850 Y3.597 F60
G1 X-0.7040 Y-0.009 F60
G1 X-0.8840 Y-3.588 F60
G1 X-0.4590 Y-0.95 F60
G1 X-1.9080 Y0.122 F60
G1 Z2 F1600
; loop 58 @ offset 1.279 mm
G0 X8.1180 Y-2.132 F1600
G1 Z-2 F1600
G1 X-0.9090 Y5.536 F60
G1 X-1.0680 Y0.552 F60
G1 X-1.3500 Y0.46 F60
G1 X-0.8130 Y0.009 F60
G1 X-0.2440 Y-0.009 F60
G1 Y-6.44 F60
G1 X-0.9980 Y-0.108 F60
G1 Z2 F1600
; loop 59 @ offset 1.279 mm
G0 X7.4520 Y-1.364 F1600
G1 Z-2 F1600
G1 X-0.5970 Y0.368 F60
G1 X-0.7360 Y0.46 F60
G1 X-0.8870 Y2.024 F60
G1 X-1.0690 Y0.554 F60
G1 X-1.3550 Y0.458 F60
G1 X-0.5680 Y0.276 F60
G1 X-0.6780 Y0.368 F60
G1 X-0.8110 Y0.828 F60
G1 X-0.9270 Y1.84 F60
G1 X-1.3400 Y0.736 F60
G1 X-0.6900 Y-0.06 F60
G1 X-0.0690 Y-0.769 F60
G1 X-0.2530 Y-0.174 F60
G1 Y-6.918 F60
G1 X-2.5760 Y0.009 F60
G1 Z2 F1600
; loop 60 @ offset 1.371 mm
G0 X-0.6660 Y0.092 F1600
G1 Z-2 F1600
G1 X-0.5750 Y0.736 F60
G1 X-0.8880 Y2.024 F60
G1 X-1.0550 Y0.552 F60
G1 X-1.2950 Y0.46 F60
G1 X-0.5530 Y0.368 F60
G1 X-0.6950 Y0.552 F60
G1 X-0.9350 Y2.484 F60
G1 X-0.8380 Y0.087 F60
G1 X-0.4370 Y-0.377 F60
G1 X-0.2530 Y-0.161 F60
G1 Y-6.734 F60
G1 X-2.3440 Y0.009 F60
G1 Z2 F1600
; loop 61 @ offset 1.371 mm
G0 X-17.7580 Y3.461 F1600
G1 Z-2 F1600
G1 X-1.4600 Y0.035 F60
G1 X-0.6220 Y0.736 F60
G1 X-0.8850 Y3.505 F60
G1 X-0.8830 Y-3.505 F60
G1 X-0.6350 Y-0.771 F60
G1 Z2 F1600
; loop 62 @ offset 1.371 mm
G0 X-7.0860 Y-3.461 F1600
G1 Z-2 F1600
G1 X-1.6750 F60
G1 X-0.5540 Y0.543 F60
G1 X-0.8050 F60
G1 X-0.5540 Y-0.543 F60
G1 Z2 F1600
; loop 63 @ offset 1.371 mm
G0 X-18.3430 F1600
G1 Z-2 F1600
G1 X-1.0900 Y-0.009 F60
G1 X-1.0650 Y0.101 F60
G1 X-1.8910 Y1.38 F60
G1 X-0.1030 Y0.125 F60
G1 X-0.3450 Y0.442 F60
G1 X-0.8880 Y-2.04 F60
G1 Z2 F1600
; loop 64 @ offset 1.371 mm
G0 X-7.8060 Y0.485 F1600
G1 Z-2 F1600
G1 X-1.4490 Y0.402 F60
G1 X-1.4490 Y0.116 F60
G1 Y6.734 F60
G1 X0.6670 F60
G1 X0.0530 Y-1.297 F60
G1 X-1.4790 Y-0.059 F60
G1 X-1.3410 Y-0.217 F60
G1 X-1.2410 Y-0.368 F60
G1 X-1.0830 Y-0.46 F60
G1 X-0.7410 Y-1.932 F60
G1 X-0.9060 Y-2.919 F60
G1 Z2 F1600
; loop 65 @ offset 1.463 mm
G0 X-0.9800 Y0.251 F1600
G1 Z-2 F1600
G1 X-1.4580 Y0.285 F60
G1 X-1.3570 Y0.074 F60
G1 Y6.55 F60
G1 X0.5990 Y-0.009 F60
G1 X-0.0720 Y-1.104 F60
G1 X-1.3770 Y-0.083 F60
G1 X-1.3570 Y-0.252 F60
G1 X-1.2410 Y-0.401 F60
G1 X-1.0690 Y-0.46 F60
G1 X-0.7390 Y-1.932 F60
G1 Y-2.668 F60
G1 Z2 F1600
; loop 66 @ offset 1.463 mm
G0 X4.9580 Y0.644 F1600
G1 Z-2 F1600
G1 X-0.3210 Y0.117 F60
G1 X-0.4370 Y0.271 F60
G1 X-0.8880 Y-1.676 F60
G1 X-0.9980 Y-0.009 F60
G1 X-1.8410 Y1.297 F60
G1 Z2 F1600
; loop 67 @ offset 1.463 mm
G0 X40.6580 Y2.392 F1600
G1 Z-2 F1600
G1 X-0.5680 Y0.411 F60
G1 X-0.7340 Y0.509 F60
G1 Y2.3 F60
G1 X-0.3240 Y-0.285 F60
G1 X-0.4370 Y-0.074 F60
G1 Y-6.55 F60
G1 X-2.1410 Y0.009 F60
G1 X-0.6770 Y0.736 F60
G1 Y1.932 F60
G1 X-1.0440 Y0.552 F60
G1 X-1.2510 Y0.46 F60
G1 Z2 F1600
; loop 68 @ offset 1.555 mm
G0 X-0.7610 F1600
G1 Z-2 F1600
G1 X-0.6220 Y0.368 F60
G1 X-0.7360 Y0.46 F60
G1 X-0.8720 Y2.208 F60
G1 X0.0320 Y-0.267 F60
G1 Y-6.366 F60
G1 X-2.0110 Y0.009 F60
G1 X-0.7140 Y0.644 F60
G1 Y1.932 F60
G1 X-1.0340 Y0.552 F60
G1 X-1.2170 Y0.46 F60
G1 Z2 F1600
; loop 69 @ offset 1.555 mm
G0 X-41.6440 Y-2.193 F1600
G1 Z-2 F1600
G1 Y-1.402 F60
G1 X-1.6750 Y1.11 F60
G1 X-0.1190 Y0.291 F60
G1 Z2 F1600
; loop 70 @ offset 1.555 mm
G0 X-7.7880 Y-0.659 F1600
G1 Z-2 F1600
G1 X-1.8260 Y0.267 F60
G1 Y6.366 F60
G1 X0.5750 F60
G1 X-0.2250 Y-0.929 F60
G1 X-1.7530 Y-0.384 F60
G1 X-1.2010 Y-0.352 F60
G1 X-1.0920 Y-0.46 F60
G1 X-0.9380 Y-0.552 F60
G1 X-0.7160 Y-1.472 F60
G1 Y-2.484 F60
G1 Z2 F1600
; loop 71 @ offset 1.647 mm
G0 X-0.9890 Y0.184 F1600
G1 Z-2 F1600
G1 X-1.7340 Y0.175 F60
G1 Y6.182 F60
G1 X0.5120 Y-0.009 F60
G1 X-0.3260 Y-0.736 F60
G1 X-1.7730 Y-0.524 F60
G1 X-1.3060 Y-0.764 F60
G1 X-0.9360 Y-0.552 F60
G1 X-0.7160 Y-1.472 F60
G1 Y-2.3 F60
G1 Z2 F1600
; loop 72 @ offset 1.647 mm
G0 X5.4680 Y0.092 F1600
G1 Z-2 F1600
G1 X-0.3710 Y0.202 F60
G1 Y-0.892 F60
G1 X-1.4230 Y0.69 F60
G1 Z2 F1600
; loop 73 @ offset 1.647 mm
G0 X40.5950 Y2.576 F1600
G1 Z-2 F1600
G1 X-0.4950 Y0.828 F60
G1 X-0.8740 Y2.024 F60
G1 X-0.0600 Y-0.175 F60
G1 Y-6.182 F60
G1 X-1.8340 Y0.009 F60
G1 X-0.8000 Y0.552 F60
G1 X-0.9050 Y2.024 F60
G1 X-1.0180 Y0.46 F60
G1 X-1.1910 Y0.46 F60
G1 Z2 F1600
; loop 74 @ offset 1.739 mm
G0 X-0.7760 F1600
G1 Z-2 F1600
G1 X-0.5230 Y0.828 F60
G1 X-0.8660 Y1.883 F60
G1 X-0.1610 Y-0.126 F60
G1 Y-5.998 F60
G1 X-1.7320 Y0.009 F60
G1 X-0.8090 Y0.46 F60
G1 X-0.9040 Y2.024 F60
G1 X-1.0110 Y0.46 F60
G1 X-1.1690 Y0.46 F60
G1 Z2 F1600
; loop 75 @ offset 1.739 mm
G0 X-47.9280 Y3.036 F1600
G1 Z-2 F1600
G1 X-1.7250 Y-0.644 F60
G1 X-1.2710 Y-0.828 F60
G1 X-0.7370 Y-1.932 F60
G1 X-0.9040 Y-2.159 F60
G1 X-1.6330 Y0.126 F60
G1 Y5.998 F60
G1 X0.4830 F60
G1 X-0.4920 Y-0.561 F60
G1 Z2 F1600
; loop 76 @ offset 1.831 mm
G0 X-1.0140 F1600
G1 Z-2 F1600
G1 X-1.5660 Y-0.46 F60
G1 X-1.3420 Y-0.736 F60
G1 X-0.9820 Y-0.644 F60
G1 X-0.7130 Y-1.656 F60
G1 Y-1.932 F60
G1 X-1.5500 Y0.083 F60
G1 Y5.814 F60
G1 X0.4240 Y-0.009 F60
G1 X-0.5500 Y-0.46 F60
G1 Z2 F1600
; loop 77 @ offset 1.831 mm
G0 X46.3680 Y-3.036 F1600
G1 Z-2 F1600
G1 X-0.5480 Y0.828 F60
G1 X-0.8760 Y1.748 F60
G1 X-0.2440 Y-0.083 F60
G1 Y-5.814 F60
G1 X-1.5660 Y0.009 F60
G1 X-0.8900 Y2.392 F60
G1 X-1.2580 Y0.92 F60
G1 Z2 F1600
; loop 78 @ offset 1.923 mm
G0 X-0.7830 F1600
G1 Z-2 F1600
G1 X-0.5680 Y0.828 F60
G1 X-0.8680 Y1.639 F60
G1 X-0.3450 Y-0.066 F60
G1 Y-5.63 F60
G1 X-1.4640 Y0.009 F60
G1 X-0.9000 Y2.3 F60
G1 X-1.2370 Y0.92 F60
G1 Z2 F1600
; loop 79 @ offset 1.923 mm
G0 X-48.4440 Y3.036 F1600
G1 Z-2 F1600
G1 X-1.5240 Y-0.46 F60
G1 X-1.3110 Y-0.736 F60
G1 X-0.9760 Y-0.736 F60
G1 X-0.7150 Y-1.564 F60
G1 Y-1.748 F60
G1 X-0.9060 Y-0.075 F60
G1 X-1.4490 Y0.066 F60
G1 Y5.63 F60
G1 X0.3910 F60
G1 X-0.6860 Y-0.377 F60
G1 Z2 F1600
; loop 80 @ offset 2.015 mm
G0 X-1.0110 Y0.092 F1600
G1 Z-2 F1600
G1 X-1.5470 Y-0.57 F60
G1 X-1.2710 Y-0.718 F60
G1 X-0.9720 Y-0.736 F60
G1 X-0.7150 Y-1.564 F60
G1 Y-1.656 F60
G1 X-1.3660 Y-0.009 F60
G1 Y5.446 F60
G1 X0.2990 F60
G1 X-0.7070 Y-0.193 F60
G1 Z2 F1600
; loop 81 @ offset 2.015 mm
G0 X46.8750 Y-3.128 F1600
G1 Z-2 F1600
G1 X-0.5860 Y0.828 F60
G1 X-0.8780 Y1.472 F60
G1 X-0.4280 Y0.009 F60
G1 Y-5.446 F60
G1 X-1.3680 Y0.009 F60
G1 X-0.9030 Y2.208 F60
G1 X-1.2180 Y0.92 F60
G1 Z2 F1600
; loop 82 @ offset 2.107 mm
G0 X-0.7880 F1600
G1 Z-2 F1600
G1 X-0.6030 Y0.828 F60
G1 X-0.8790 Y1.38 F60
G1 X-0.5200 Y0.009 F60
G1 Y-5.262 F60
G1 X-1.2750 Y0.009 F60
G1 X-0.9040 Y2.116 F60
G1 X-1.2010 Y0.92 F60
G1 Z2 F1600
; loop 83 @ offset 2.107 mm
G0 X-48.8930 Y3.128 F1600
G1 Z-2 F1600
G1 X-1.5350 Y-0.552 F60
G1 X-1.2860 Y-0.828 F60
G1 X-0.9460 Y-0.644 F60
G1 X-0.7150 Y-1.564 F60
G1 Y-1.564 F60
G1 X-1.2740 Y-0.009 F60
G1 Y5.262 F60
G1 X0.2990 F60
G1 X-0.8220 Y-0.101 F60
G1 Z2 F1600
; loop 84 @ offset 2.199 mm
G0 X-1.0940 F1600
G1 Z-2 F1600
G1 X-1.5110 Y-0.636 F60
G1 X-1.2070 Y-0.744 F60
G1 X-0.9440 Y-0.644 F60
G1 X-0.7150 Y-1.564 F60
G1 Y-1.472 F60
G1 X-1.1820 Y-0.009 F60
G1 Y5.078 F60
G1 X0.1770 Y-0.009 F60
G1 Z2 F1600
; loop 85 @ offset 2.199 mm
G0 X47.4030 Y-3.128 F1600
G1 Z-2 F1600
G1 X-0.6170 Y0.828 F60
G1 X-0.8800 Y1.288 F60
G1 X-0.6120 Y0.009 F60
G1 Y-5.078 F60
G1 X-1.1820 Y0.009 F60
G1 X-0.9050 Y2.024 F60
G1 X-1.1870 Y0.92 F60
G1 Z2 F1600
; loop 86 @ offset 2.291 mm
G0 X-0.7910 F1600
G1 Z-2 F1600
G1 X-0.6300 Y0.828 F60
G1 X-0.8800 Y1.196 F60
G1 X-0.7040 Y0.009 F60
G1 Y-4.894 F60
G1 X-1.0900 Y0.009 F60
G1 X-0.9040 Y1.932 F60
G1 X-1.1730 Y0.92 F60
G1 Z2 F1600
; loop 87 @ offset 2.291 mm
G0 X-49.5840 Y3.036 F1600
G1 Z-2 F1600
G1 X-1.3960 Y-0.644 F60
G1 X-1.1510 Y-0.736 F60
G1 X-0.7430 Y-3.496 F60
G1 X-1.0900 Y-0.009 F60
G1 Y4.894 F60
G1 X-0.1050 Y-0.009 F60
G1 Z2 F1600
; loop 88 @ offset 2.383 mm
G0 X-1.1210 Y-0.092 F1600
G1 Z-2 F1600
G1 X-1.4660 Y-1.034 F60
G1 Y1.043 F60
G1 X-0.3280 Y-0.009 F60
G1 Z2 F1600
; loop 89 @ offset 2.383 mm
G0 X-1.4660 Y-2.37 F1600
G1 Z-2 F1600
G1 X-0.7960 Y-1.126 F60
G1 Y-1.196 F60
G1 X-0.9980 Y-0.009 F60
G1 Y2.331 F60
G1 Z2 F1600
; loop 90 @ offset 2.383 mm
G0 X48.6870 Y-0.574 F1600
G1 Z-2 F1600
G1 X-0.6710 Y0.644 F60
G1 X-0.8520 Y1.288 F60
G1 X-0.7960 Y0.009 F60
G1 Y-4.71 F60
G1 X-0.9980 Y0.009 F60
G1 X-0.9130 Y1.932 F60
G1 X-1.1520 Y0.828 F60
G1 Z2 F1600
; loop 91 @ offset 2.475 mm
G0 X-0.7940 F1600
G1 Z-2 F1600
G1 X-0.6650 Y0.736 F60
G1 X-0.8600 Y1.113 F60
G1 Y-4.526 F60
G1 X-0.9210 Y1.849 F60
G1 X-1.1410 Y0.828 F60
G1 Z2 F1600
