; Elyton logo — RASTER FILL (boustrophedon, line-by-line)
; Source logo.png  |  45.0 x 9.60 mm  |  native aspect preserved
; Tool 1.27mm  |  scanline stepover 0.635mm (50% of tool, overlapping)
; ABSOLUTE (G90), mm (G21). Origin (0,0)=bottom-left of logo box.
; Each line: rapid to start (Z2.0) -> plunge Z0.0 -> cut across F60 -> lift Z2.0
; If the Z-gap PCB owns depth, delete every Z line -> pure XY raster.
G21
G90
G0 Z2.00 F1600
G0 X0.331 Y0.662 F1600
G1 Z0.00 F1600
G1 X6.535 Y0.662 F60
G1 Z2.00 F1600
G0 X7.941 Y0.662 F1600
G1 Z0.00 F1600
G1 X14.228 Y0.662 F60
G1 Z2.00 F1600
G0 X15.634 Y0.662 F1600
G1 Z0.00 F1600
G1 X17.785 Y0.662 F60
G1 Z2.00 F1600
G0 X21.342 Y0.662 F1600
G1 Z0.00 F1600
G1 X23.493 Y0.662 F60
G1 Z2.00 F1600
G0 X27.877 Y0.662 F1600
G1 Z0.00 F1600
G1 X33.006 Y0.662 F60
G1 Z2.00 F1600
G0 X36.976 Y0.662 F1600
G1 Z0.00 F1600
G1 X38.713 Y0.662 F60
G1 Z2.00 F1600
G0 X42.518 Y0.662 F1600
G1 Z0.00 F1600
G1 X44.917 Y0.662 F60
G1 Z2.00 F1600
G0 X44.917 Y1.241 F1600
G1 Z0.00 F1600
G1 X42.105 Y1.241 F60
G1 Z2.00 F1600
G0 X38.713 Y1.241 F1600
G1 Z0.00 F1600
G1 X36.645 Y1.241 F60
G1 Z2.00 F1600
G0 X33.750 Y1.241 F1600
G1 Z0.00 F1600
G1 X27.960 Y1.241 F60
G1 Z2.00 F1600
G0 X23.493 Y1.241 F1600
G1 Z0.00 F1600
G1 X21.342 Y1.241 F60
G1 Z2.00 F1600
G0 X17.785 Y1.241 F1600
G1 Z0.00 F1600
G1 X15.634 Y1.241 F60
G1 Z2.00 F1600
G0 X14.228 Y1.241 F1600
G1 Z0.00 F1600
G1 X7.941 Y1.241 F60
G1 Z2.00 F1600
G0 X6.535 Y1.241 F1600
G1 Z0.00 F1600
G1 X0.000 Y1.241 F60
G1 Z2.00 F1600
G0 X0.000 Y1.903 F1600
G1 Z0.00 F1600
G1 X6.535 Y1.903 F60
G1 Z2.00 F1600
G0 X7.941 Y1.903 F1600
G1 Z0.00 F1600
G1 X14.228 Y1.903 F60
G1 Z2.00 F1600
G0 X15.634 Y1.903 F1600
G1 Z0.00 F1600
G1 X17.785 Y1.903 F60
G1 Z2.00 F1600
G0 X21.342 Y1.903 F1600
G1 Z0.00 F1600
G1 X23.493 Y1.903 F60
G1 Z2.00 F1600
G0 X26.553 Y1.903 F1600
G1 Z0.00 F1600
G1 X26.636 Y1.903 F60
G1 Z2.00 F1600
G0 X28.621 Y1.903 F1600
G1 Z0.00 F1600
G1 X34.329 Y1.903 F60
G1 Z2.00 F1600
G0 X36.645 Y1.903 F1600
G1 Z0.00 F1600
G1 X38.713 Y1.903 F60
G1 Z2.00 F1600
G0 X41.608 Y1.903 F1600
G1 Z0.00 F1600
G1 X44.917 Y1.903 F60
G1 Z2.00 F1600
G0 X44.917 Y2.564 F1600
G1 Z0.00 F1600
G1 X41.112 Y2.564 F60
G1 Z2.00 F1600
G0 X38.713 Y2.564 F1600
G1 Z0.00 F1600
G1 X36.645 Y2.564 F60
G1 Z2.00 F1600
G0 X34.743 Y2.564 F1600
G1 Z0.00 F1600
G1 X32.013 Y2.564 F60
G1 Z2.00 F1600
G0 X27.298 Y2.564 F1600
G1 Z0.00 F1600
G1 X26.140 Y2.564 F60
G1 Z2.00 F1600
G0 X23.493 Y2.564 F1600
G1 Z0.00 F1600
G1 X21.342 Y2.564 F60
G1 Z2.00 F1600
G0 X17.785 Y2.564 F1600
G1 Z0.00 F1600
G1 X15.634 Y2.564 F60
G1 Z2.00 F1600
G0 X10.092 Y2.564 F1600
G1 Z0.00 F1600
G1 X7.941 Y2.564 F60
G1 Z2.00 F1600
G0 X2.068 Y2.564 F1600
G1 Z0.00 F1600
G1 X0.000 Y2.564 F60
G1 Z2.00 F1600
G0 X0.000 Y3.143 F1600
G1 Z0.00 F1600
G1 X2.068 Y3.143 F60
G1 Z2.00 F1600
G0 X7.941 Y3.143 F1600
G1 Z0.00 F1600
G1 X10.092 Y3.143 F60
G1 Z2.00 F1600
G0 X15.634 Y3.143 F1600
G1 Z0.00 F1600
G1 X17.785 Y3.143 F60
G1 Z2.00 F1600
G0 X21.342 Y3.143 F1600
G1 Z0.00 F1600
G1 X23.493 Y3.143 F60
G1 Z2.00 F1600
G0 X25.974 Y3.143 F1600
G1 Z0.00 F1600
G1 X27.877 Y3.143 F60
G1 Z2.00 F1600
G0 X32.509 Y3.143 F1600
G1 Z0.00 F1600
G1 X34.991 Y3.143 F60
G1 Z2.00 F1600
G0 X36.645 Y3.143 F1600
G1 Z0.00 F1600
G1 X38.713 Y3.143 F60
G1 Z2.00 F1600
G0 X40.616 Y3.143 F1600
G1 Z0.00 F1600
G1 X44.917 Y3.143 F60
G1 Z2.00 F1600
G0 X44.917 Y3.805 F1600
G1 Z0.00 F1600
G1 X42.932 Y3.805 F60
G1 Z2.00 F1600
G0 X42.601 Y3.805 F1600
G1 Z0.00 F1600
G1 X40.202 Y3.805 F60
G1 Z2.00 F1600
G0 X38.713 Y3.805 F1600
G1 Z0.00 F1600
G1 X36.645 Y3.805 F60
G1 Z2.00 F1600
G0 X35.156 Y3.805 F1600
G1 Z0.00 F1600
G1 X32.840 Y3.805 F60
G1 Z2.00 F1600
G0 X31.434 Y3.805 F1600
G1 Z0.00 F1600
G1 X29.531 Y3.805 F60
G1 Z2.00 F1600
G0 X28.042 Y3.805 F1600
G1 Z0.00 F1600
G1 X25.809 Y3.805 F60
G1 Z2.00 F1600
G0 X23.493 Y3.805 F1600
G1 Z0.00 F1600
G1 X21.342 Y3.805 F60
G1 Z2.00 F1600
G0 X17.785 Y3.805 F1600
G1 Z0.00 F1600
G1 X15.634 Y3.805 F60
G1 Z2.00 F1600
G0 X10.092 Y3.805 F1600
G1 Z0.00 F1600
G1 X7.941 Y3.805 F60
G1 Z2.00 F1600
G0 X2.068 Y3.805 F1600
G1 Z0.00 F1600
G1 X0.000 Y3.805 F60
G1 Z2.00 F1600
G0 X0.000 Y4.467 F1600
G1 Z0.00 F1600
G1 X5.790 Y4.467 F60
G1 Z2.00 F1600
G0 X7.941 Y4.467 F1600
G1 Z0.00 F1600
G1 X10.092 Y4.467 F60
G1 Z2.00 F1600
G0 X15.386 Y4.467 F1600
G1 Z0.00 F1600
G1 X17.950 Y4.467 F60
G1 Z2.00 F1600
G0 X21.342 Y4.467 F1600
G1 Z0.00 F1600
G1 X23.493 Y4.467 F60
G1 Z2.00 F1600
G0 X25.726 Y4.467 F1600
G1 Z0.00 F1600
G1 X27.960 Y4.467 F60
G1 Z2.00 F1600
G0 X29.200 Y4.467 F1600
G1 Z0.00 F1600
G1 X29.779 Y4.467 F60
G1 Z2.00 F1600
G0 X31.186 Y4.467 F1600
G1 Z0.00 F1600
G1 X31.682 Y4.467 F60
G1 Z2.00 F1600
G0 X33.006 Y4.467 F1600
G1 Z0.00 F1600
G1 X35.239 Y4.467 F60
G1 Z2.00 F1600
G0 X36.645 Y4.467 F1600
G1 Z0.00 F1600
G1 X38.713 Y4.467 F60
G1 Z2.00 F1600
G0 X39.706 Y4.467 F1600
G1 Z0.00 F1600
G1 X42.105 Y4.467 F60
G1 Z2.00 F1600
G0 X42.849 Y4.467 F1600
G1 Z0.00 F1600
G1 X44.917 Y4.467 F60
G1 Z2.00 F1600
G0 X44.917 Y5.046 F1600
G1 Z0.00 F1600
G1 X42.849 Y5.046 F60
G1 Z2.00 F1600
G0 X41.691 Y5.046 F1600
G1 Z0.00 F1600
G1 X39.210 Y5.046 F60
G1 Z2.00 F1600
G0 X38.631 Y5.046 F1600
G1 Z0.00 F1600
G1 X36.645 Y5.046 F60
G1 Z2.00 F1600
G0 X35.239 Y5.046 F1600
G1 Z0.00 F1600
G1 X33.006 Y5.046 F60
G1 Z2.00 F1600
G0 X31.682 Y5.046 F1600
G1 Z0.00 F1600
G1 X31.103 Y5.046 F60
G1 Z2.00 F1600
G0 X29.779 Y5.046 F1600
G1 Z0.00 F1600
G1 X29.200 Y5.046 F60
G1 Z2.00 F1600
G0 X27.960 Y5.046 F1600
G1 Z0.00 F1600
G1 X25.726 Y5.046 F60
G1 Z2.00 F1600
G0 X23.493 Y5.046 F1600
G1 Z0.00 F1600
G1 X21.342 Y5.046 F60
G1 Z2.00 F1600
G0 X18.364 Y5.046 F1600
G1 Z0.00 F1600
G1 X14.972 Y5.046 F60
G1 Z2.00 F1600
G0 X10.092 Y5.046 F1600
G1 Z0.00 F1600
G1 X7.941 Y5.046 F60
G1 Z2.00 F1600
G0 X5.790 Y5.046 F1600
G1 Z0.00 F1600
G1 X0.000 Y5.046 F60
G1 Z2.00 F1600
G0 X0.000 Y5.708 F1600
G1 Z0.00 F1600
G1 X2.151 Y5.708 F60
G1 Z2.00 F1600
G0 X7.941 Y5.708 F1600
G1 Z0.00 F1600
G1 X10.092 Y5.708 F60
G1 Z2.00 F1600
G0 X14.559 Y5.708 F1600
G1 Z0.00 F1600
G1 X18.778 Y5.708 F60
G1 Z2.00 F1600
G0 X21.342 Y5.708 F1600
G1 Z0.00 F1600
G1 X23.493 Y5.708 F60
G1 Z2.00 F1600
G0 X25.809 Y5.708 F1600
G1 Z0.00 F1600
G1 X28.042 Y5.708 F60
G1 Z2.00 F1600
G0 X29.614 Y5.708 F1600
G1 Z0.00 F1600
G1 X31.268 Y5.708 F60
G1 Z2.00 F1600
G0 X32.840 Y5.708 F1600
G1 Z0.00 F1600
G1 X35.156 Y5.708 F60
G1 Z2.00 F1600
G0 X36.645 Y5.708 F1600
G1 Z0.00 F1600
G1 X38.548 Y5.708 F60
G1 Z2.00 F1600
G0 X38.713 Y5.708 F1600
G1 Z0.00 F1600
G1 X41.195 Y5.708 F60
G1 Z2.00 F1600
G0 X42.767 Y5.708 F1600
G1 Z0.00 F1600
G1 X44.917 Y5.708 F60
G1 Z2.00 F1600
G0 X44.917 Y6.369 F1600
G1 Z0.00 F1600
G1 X42.767 Y6.369 F60
G1 Z2.00 F1600
G0 X40.699 Y6.369 F1600
G1 Z0.00 F1600
G1 X36.645 Y6.369 F60
G1 Z2.00 F1600
G0 X34.991 Y6.369 F1600
G1 Z0.00 F1600
G1 X33.088 Y6.369 F60
G1 Z2.00 F1600
G0 X28.373 Y6.369 F1600
G1 Z0.00 F1600
G1 X25.974 Y6.369 F60
G1 Z2.00 F1600
G0 X23.493 Y6.369 F1600
G1 Z0.00 F1600
G1 X21.342 Y6.369 F60
G1 Z2.00 F1600
G0 X19.191 Y6.369 F1600
G1 Z0.00 F1600
G1 X16.875 Y6.369 F60
G1 Z2.00 F1600
G0 X16.544 Y6.369 F1600
G1 Z0.00 F1600
G1 X14.062 Y6.369 F60
G1 Z2.00 F1600
G0 X10.092 Y6.369 F1600
G1 Z0.00 F1600
G1 X7.941 Y6.369 F60
G1 Z2.00 F1600
G0 X2.068 Y6.369 F1600
G1 Z0.00 F1600
G1 X0.000 Y6.369 F60
G1 Z2.00 F1600
G0 X0.000 Y6.949 F1600
G1 Z0.00 F1600
G1 X2.068 Y6.949 F60
G1 Z2.00 F1600
G0 X7.941 Y6.949 F1600
G1 Z0.00 F1600
G1 X10.092 Y6.949 F60
G1 Z2.00 F1600
G0 X13.649 Y6.949 F1600
G1 Z0.00 F1600
G1 X16.131 Y6.949 F60
G1 Z2.00 F1600
G0 X17.289 Y6.949 F1600
G1 Z0.00 F1600
G1 X19.191 Y6.949 F60
G1 Z2.00 F1600
G0 X21.342 Y6.949 F1600
G1 Z0.00 F1600
G1 X23.493 Y6.949 F60
G1 Z2.00 F1600
G0 X26.140 Y6.949 F1600
G1 Z0.00 F1600
G1 X28.952 Y6.949 F60
G1 Z2.00 F1600
G0 X33.667 Y6.949 F1600
G1 Z0.00 F1600
G1 X34.743 Y6.949 F60
G1 Z2.00 F1600
G0 X36.645 Y6.949 F1600
G1 Z0.00 F1600
G1 X40.285 Y6.949 F60
G1 Z2.00 F1600
G0 X42.767 Y6.949 F1600
G1 Z0.00 F1600
G1 X44.917 Y6.949 F60
G1 Z2.00 F1600
G0 X44.917 Y7.610 F1600
G1 Z0.00 F1600
G1 X42.767 Y7.610 F60
G1 Z2.00 F1600
G0 X39.789 Y7.610 F1600
G1 Z0.00 F1600
G1 X36.645 Y7.610 F60
G1 Z2.00 F1600
G0 X34.329 Y7.610 F1600
G1 Z0.00 F1600
G1 X34.329 Y7.610 F60
G1 Z2.00 F1600
G0 X32.344 Y7.610 F1600
G1 Z0.00 F1600
G1 X26.553 Y7.610 F60
G1 Z2.00 F1600
G0 X24.982 Y7.610 F1600
G1 Z0.00 F1600
G1 X20.515 Y7.610 F60
G1 Z2.00 F1600
G0 X18.529 Y7.610 F1600
G1 Z0.00 F1600
G1 X17.702 Y7.610 F60
G1 Z2.00 F1600
G0 X15.634 Y7.610 F1600
G1 Z0.00 F1600
G1 X13.153 Y7.610 F60
G1 Z2.00 F1600
G0 X10.092 Y7.610 F1600
G1 Z0.00 F1600
G1 X8.107 Y7.610 F60
G1 Z2.00 F1600
G0 X6.121 Y7.610 F1600
G1 Z0.00 F1600
G1 X0.000 Y7.610 F60
G1 Z2.00 F1600
G0 X0.000 Y8.272 F1600
G1 Z0.00 F1600
G1 X6.783 Y8.272 F60
G1 Z2.00 F1600
G0 X8.768 Y8.272 F1600
G1 Z0.00 F1600
G1 X10.092 Y8.272 F60
G1 Z2.00 F1600
G0 X12.739 Y8.272 F1600
G1 Z0.00 F1600
G1 X15.221 Y8.272 F60
G1 Z2.00 F1600
G0 X19.853 Y8.272 F1600
G1 Z0.00 F1600
G1 X25.643 Y8.272 F60
G1 Z2.00 F1600
G0 X27.132 Y8.272 F1600
G1 Z0.00 F1600
G1 X33.006 Y8.272 F60
G1 Z2.00 F1600
G0 X36.645 Y8.272 F1600
G1 Z0.00 F1600
G1 X39.292 Y8.272 F60
G1 Z2.00 F1600
G0 X42.767 Y8.272 F1600
G1 Z0.00 F1600
G1 X44.917 Y8.272 F60
G1 Z2.00 F1600
G0 X44.421 Y8.851 F1600
G1 Z0.00 F1600
G1 X42.767 Y8.851 F60
G1 Z2.00 F1600
G0 X38.879 Y8.851 F1600
G1 Z0.00 F1600
G1 X36.645 Y8.851 F60
G1 Z2.00 F1600
G0 X33.006 Y8.851 F1600
G1 Z0.00 F1600
G1 X27.877 Y8.851 F60
G1 Z2.00 F1600
G0 X26.222 Y8.851 F1600
G1 Z0.00 F1600
G1 X19.274 Y8.851 F60
G1 Z2.00 F1600
G0 X14.807 Y8.851 F1600
G1 Z0.00 F1600
G1 X12.325 Y8.851 F60
G1 Z2.00 F1600
G0 X10.092 Y8.851 F1600
G1 Z0.00 F1600
G1 X9.347 Y8.851 F60
G1 Z2.00 F1600
G0 X7.362 Y8.851 F1600
G1 Z0.00 F1600
G1 X0.000 Y8.851 F60
G1 Z2.00 F1600
G0 X29.862 Y9.513 F1600
G1 Z0.00 F1600
G1 X31.103 Y9.513 F60
G1 Z2.00 F1600
G0 X0 Y0 F1600
M2
