; Elyton logo — OUTLINE / contour trace (no fill)
; Source: logo.png   Size: 45.00 x 9.53 mm (native aspect preserved)
; ABSOLUTE coords (G90), mm (G21). Origin (0,0) = bottom-left of logo box.
; Z travel=2.0  Z cut=0.0  |  cut F60  travel F1600
; If the Z-gap PCB owns depth, delete every Z line -> pure XY trace.
; 9 closed contours
G21
G90
G0 Z2.00 F1600
G0 X0.000 Y9.282 F1600
G1 Z0.00 F1600
G1 X0.000 Y0.994 F60
G1 X0.829 Y0.166 F60
G1 X6.547 Y0.166 F60
G1 X6.464 Y1.989 F60
G1 X2.072 Y2.072 F60
G1 X2.155 Y3.895 F60
G1 X5.801 Y3.895 F60
G1 X5.801 Y5.635 F60
G1 X2.238 Y5.635 F60
G1 X2.072 Y5.801 F60
G1 X2.072 Y7.376 F60
G1 X5.967 Y7.459 F60
G1 X7.790 Y9.282 F60
G1 X0.000 Y9.282 F60
G1 Z2.00 F1600
G0 X9.779 Y9.282 F1600
G1 Z0.00 F1600
G1 X7.956 Y7.459 F60
G1 X7.956 Y0.166 F60
G1 X14.254 Y0.166 F60
G1 X14.254 Y1.989 F60
G1 X10.110 Y2.072 F60
G1 X10.110 Y9.282 F60
G1 X9.779 Y9.282 F60
G1 Z2.00 F1600
G0 X12.017 Y9.282 F1600
G1 Z0.00 F1600
G1 X15.663 Y4.144 F60
G1 X15.663 Y0.166 F60
G1 X17.818 Y0.166 F60
G1 X17.818 Y4.227 F60
G1 X19.475 Y6.713 F60
G1 X18.066 Y8.122 F60
G1 X16.740 Y6.133 F60
G1 X14.503 Y9.282 F60
G1 X12.017 Y9.282 F60
G1 Z2.00 F1600
G0 X18.895 Y9.282 F1600
G1 Z0.00 F1600
G1 X20.718 Y7.459 F60
G1 X21.215 Y7.459 F60
G1 X21.381 Y7.293 F60
G1 X21.381 Y0.166 F60
G1 X23.536 Y0.166 F60
G1 X23.536 Y7.376 F60
G1 X24.862 Y7.459 F60
G1 X26.685 Y9.282 F60
G1 X18.895 Y9.282 F60
G1 Z2.00 F1600
G0 X33.232 Y8.785 F1600
G1 Z0.00 F1600
G1 X31.657 Y9.448 F60
G1 X29.917 Y9.530 F60
G1 X29.088 Y9.365 F60
G1 X27.928 Y8.867 F60
G1 X26.851 Y7.956 F60
G1 X26.188 Y6.961 F60
G1 X25.773 Y5.635 F60
G1 X25.856 Y3.481 F60
G1 X26.188 Y2.569 F60
G1 X26.602 Y1.906 F60
G1 X28.177 Y3.398 F60
G1 X27.928 Y4.890 F60
G1 X28.094 Y5.801 F60
G1 X28.508 Y6.547 F60
G1 X29.420 Y7.293 F60
G1 X29.917 Y7.459 F60
G1 X31.077 Y7.459 F60
G1 X31.906 Y7.127 F60
G1 X33.398 Y8.619 F60
G1 X33.232 Y8.785 F60
G1 Z2.00 F1600
G0 X30.083 Y5.967 F1600
G1 Z0.00 F1600
G1 X29.420 Y5.470 F60
G1 X29.254 Y5.138 F60
G1 X29.254 Y4.309 F60
G1 X29.420 Y3.978 F60
G1 X30.083 Y3.481 F60
G1 X30.994 Y3.481 F60
G1 X31.409 Y3.729 F60
G1 X31.740 Y4.227 F60
G1 X31.740 Y5.221 F60
G1 X31.160 Y5.884 F60
G1 X30.083 Y5.967 F60
G1 Z2.00 F1600
G0 X30.249 Y5.470 F1600
G1 Z0.00 F1600
G1 X30.829 Y5.470 F60
G1 X31.243 Y4.972 F60
G1 X31.243 Y4.475 F60
G1 X30.829 Y3.978 F60
G1 X30.497 Y3.895 F60
G1 X30.083 Y4.061 F60
G1 X29.751 Y4.558 F60
G1 X29.917 Y5.221 F60
G1 X30.249 Y5.470 F60
G1 Z2.00 F1600
G0 X34.558 Y7.459 F1600
G1 Z0.00 F1600
G1 X34.392 Y7.624 F60
G1 X32.818 Y6.050 F60
G1 X33.066 Y5.221 F60
G1 X32.983 Y3.895 F60
G1 X32.569 Y3.066 F60
G1 X31.906 Y2.403 F60
G1 X30.663 Y1.989 F60
G1 X29.834 Y2.072 F60
G1 X29.171 Y2.403 F60
G1 X27.680 Y0.829 F60
G1 X28.757 Y0.249 F60
G1 X29.337 Y0.083 F60
G1 X31.243 Y0.000 F60
G1 X32.486 Y0.331 F60
G1 X33.481 Y0.912 F60
G1 X34.558 Y2.072 F60
G1 X34.972 Y2.901 F60
G1 X35.221 Y3.812 F60
G1 X35.221 Y5.718 F60
G1 X34.972 Y6.630 F60
G1 X34.558 Y7.459 F60
G1 Z2.00 F1600
G0 X36.713 Y9.282 F1600
G1 Z0.00 F1600
G1 X36.713 Y0.994 F60
G1 X37.541 Y0.166 F60
G1 X38.785 Y0.166 F60
G1 X38.785 Y4.558 F60
G1 X38.619 Y5.470 F60
G1 X38.702 Y5.884 F60
G1 X42.928 Y0.166 F60
G1 X45.000 Y0.166 F60
G1 X45.000 Y8.370 F60
G1 X44.088 Y9.282 F60
G1 X42.845 Y9.282 F60
G1 X42.845 Y5.470 F60
G1 X43.011 Y4.144 F60
G1 X42.928 Y3.481 F60
G1 X38.702 Y9.282 F60
G1 X36.713 Y9.282 F60
G1 Z2.00 F1600
G0 X0 Y0 F1600
M2
